{"type": "FeatureCollection", "features": [ {"type": "Feature", "properties": {"norad_id": 38755, "name": "SPOT 6", "group": "resource", "lat": 10.594074309929928, "lon": 50.188955705092795, "alt_km": 699.1088294700776, "timestamp": "2025-12-12T22:42:12.206930+00:00", "meta": {"OBJECT_NAME": "SPOT 6", "OBJECT_ID": "2012-047A", "EPOCH": "2025-12-12T07:50:13.151040", "MEAN_MOTION": 14.58603168, "ECCENTRICITY": 0.0001091, "INCLINATION": 98.1567, "RA_OF_ASC_NODE": 51.1182, "ARG_OF_PERICENTER": 96.834, "MEAN_ANOMALY": 263.2983, "EPHEMERIS_TYPE": 0, "CLASSIFICATION_TYPE": "U", "NORAD_CAT_ID": 38755, "ELEMENT_SET_NO": 999, "REV_AT_EPOCH": 70581, "BSTAR": 0.00018656168, "MEAN_MOTION_DOT": 8.23e-06, "MEAN_MOTION_DDOT": 0}, "tle": {"line1": "1 38755U 12047A   25346.32654110  .00000823  00000+0  18656-3 0  9995", "line2": "2 38755  98.1567  51.1182 0001091  96.8340 263.2983 14.58603168705811"}}, "geometry": {"type": "Point", "coordinates": [50.188955705092795, 10.594074309929928]}}, {"type": "Feature", "properties": {"norad_id": 39019, "name": "PLEIADES 1B", "group": "resource", "lat": -81.7906048964423, "lon": 154.12112292156226, "alt_km": 706.0354708005989, "timestamp": "2025-12-12T22:42:12.206940+00:00", "meta": {"OBJECT_NAME": "PLEIADES 1B", "OBJECT_ID": "2012-068A", "EPOCH": "2025-12-12T08:18:02.107008", "MEAN_MOTION": 14.58552875, "ECCENTRICITY": 0.00012013, "INCLINATION": 98.1788, "RA_OF_ASC_NODE": 59.0032, "ARG_OF_PERICENTER": 82.4773, "MEAN_ANOMALY": 277.6563, "EPHEMERIS_TYPE": 0, "CLASSIFICATION_TYPE": "U", "NORAD_CAT_ID": 39019, "ELEMENT_SET_NO": 999, "REV_AT_EPOCH": 69361, "BSTAR": 0.00018989212, "MEAN_MOTION_DOT": 8.37e-06, "MEAN_MOTION_DDOT": 0}, "tle": {"line1": "1 39019U 12068A   25346.34585772  .00000837  00000+0  18989-3 0  9995", "line2": "2 39019  98.1788  59.0032 0001201  82.4773 277.6563 14.58552875693610"}}, "geometry": {"type": "Point", "coordinates": [154.12112292156226, -81.7906048964423]}}, {"type": "Feature", "properties": {"norad_id": 39030, "name": "GOKTURK 2", "group": "resource", "lat": 42.34368994103306, "lon": 15.661793442112923, "alt_km": 640.2263590498478, "timestamp": "2025-12-12T22:42:12.206950+00:00", "meta": {"OBJECT_NAME": "GOKTURK 2", "OBJECT_ID": "2012-073A", "EPOCH": "2025-12-12T07:26:02.342976", "MEAN_MOTION": 14.75288953, "ECCENTRICITY": 9.909e-05, "INCLINATION": 97.6895, "RA_OF_ASC_NODE": 187.9844, "ARG_OF_PERICENTER": 103.7087, "MEAN_ANOMALY": 256.4233, "EPHEMERIS_TYPE": 0, "CLASSIFICATION_TYPE": "U", "NORAD_CAT_ID": 39030, "ELEMENT_SET_NO": 999, "REV_AT_EPOCH": 69695, "BSTAR": 0.00011420294, "MEAN_MOTION_DOT": 7.26e-06, "MEAN_MOTION_DDOT": 0}, "tle": {"line1": "1 39030U 12073A   25346.30974934  .00000726  00000+0  11420-3 0  9992", "line2": "2 39030  97.6895 187.9844 0000990 103.7087 256.4233 14.75288953696958"}}, "geometry": {"type": "Point", "coordinates": [15.661793442112923, 42.34368994103306]}}, {"type": "Feature", "properties": {"norad_id": 39084, "name": "LANDSAT 8", "group": "resource", "lat": 75.73575683225766, "lon": 20.426392881065524, "alt_km": 694.5564458250519, "timestamp": "2025-12-12T22:42:12.206960+00:00", "meta": {"OBJECT_NAME": "LANDSAT 8", "OBJECT_ID": "2013-008A", "EPOCH": "2025-12-12T05:51:53.218944", "MEAN_MOTION": 14.57113354, "ECCENTRICITY": 0.00010896, "INCLINATION": 98.2073, "RA_OF_ASC_NODE": 54.3251, "ARG_OF_PERICENTER": 88.4777, "MEAN_ANOMALY": 271.6546, "EPHEMERIS_TYPE": 0, "CLASSIFICATION_TYPE": "U", "NORAD_CAT_ID": 39084, "ELEMENT_SET_NO": 999, "REV_AT_EPOCH": 67067, "BSTAR": 0.00015974499, "MEAN_MOTION_DOT": 6.75e-06, "MEAN_MOTION_DDOT": 0}, "tle": {"line1": "1 39084U 13008A   25346.24436596  .00000675  00000+0  15974-3 0  9991", "line2": "2 39084  98.2073  54.3251 0001089  88.4777 271.6546 14.57113354670675"}}, "geometry": {"type": "Point", "coordinates": [20.426392881065524, 75.73575683225766]}}, {"type": "Feature", "properties": {"norad_id": 39086, "name": "SARAL", "group": "resource", "lat": 45.19836891975556, "lon": 162.16006462725878, "alt_km": 777.6380705451156, "timestamp": "2025-12-12T22:42:12.206971+00:00", "meta": {"OBJECT_NAME": "SARAL", "OBJECT_ID": "2013-009A", "EPOCH": "2025-12-12T05:43:46.567488", "MEAN_MOTION": 14.32756787, "ECCENTRICITY": 0.00028593, "INCLINATION": 98.5503, "RA_OF_ASC_NODE": 170.1757, "ARG_OF_PERICENTER": 109.6071, "MEAN_ANOMALY": 250.5422, "EPHEMERIS_TYPE": 0, "CLASSIFICATION_TYPE": "U", "NORAD_CAT_ID": 39086, "ELEMENT_SET_NO": 999, "REV_AT_EPOCH": 66883, "BSTAR": 9.3934111e-05, "MEAN_MOTION_DOT": 2.12e-06, "MEAN_MOTION_DDOT": 0}, "tle": {"line1": "1 39086U 13009A   25346.23873342  .00000212  00000+0  93934-4 0  9997", "line2": "2 39086  98.5503 170.1757 0002859 109.6071 250.5422 14.32756787668835"}}, "geometry": {"type": "Point", "coordinates": [162.16006462725878, 45.19836891975556]}}, {"type": "Feature", "properties": {"norad_id": 39150, "name": "GAOFEN-1", "group": "resource", "lat": -35.952416666287455, "lon": -128.20267175493356, "alt_km": 643.070313609086, "timestamp": "2025-12-12T22:42:12.206981+00:00", "meta": {"OBJECT_NAME": "GAOFEN-1", "OBJECT_ID": "2013-018A", "EPOCH": "2025-12-12T07:05:26.461824", "MEAN_MOTION": 14.76533677, "ECCENTRICITY": 0.00182053, "INCLINATION": 97.9323, "RA_OF_ASC_NODE": 56.9623, "ARG_OF_PERICENTER": 144.3263, "MEAN_ANOMALY": 215.9168, "EPHEMERIS_TYPE": 0, "CLASSIFICATION_TYPE": "U", "NORAD_CAT_ID": 39150, "ELEMENT_SET_NO": 999, "REV_AT_EPOCH": 68066, "BSTAR": 0.00024323407, "MEAN_MOTION_DOT": 1.649e-05, "MEAN_MOTION_DDOT": 0}, "tle": {"line1": "1 39150U 13018A   25346.29544516  .00001649  00000+0  24323-3 0  9993", "line2": "2 39150  97.9323  56.9623 0018205 144.3263 215.9168 14.76533677680660"}}, "geometry": {"type": "Point", "coordinates": [-128.20267175493356, -35.952416666287455]}}, {"type": "Feature", "properties": {"norad_id": 39160, "name": "VNREDSAT 1", "group": "resource", "lat": -82.05747755883897, "lon": 132.64093692788745, "alt_km": 685.5661572774989, "timestamp": "2025-12-12T22:42:12.207003+00:00", "meta": {"OBJECT_NAME": "VNREDSAT 1", "OBJECT_ID": "2013-021B", "EPOCH": "2025-12-12T06:43:16.090176", "MEAN_MOTION": 14.64922443, "ECCENTRICITY": 0.0001294, "INCLINATION": 97.9371, "RA_OF_ASC_NODE": 41.5706, "ARG_OF_PERICENTER": 79.4414, "MEAN_ANOMALY": 280.6935, "EPHEMERIS_TYPE": 0, "CLASSIFICATION_TYPE": "U", "NORAD_CAT_ID": 39160, "ELEMENT_SET_NO": 999, "REV_AT_EPOCH": 67292, "BSTAR": 0.00025171225, "MEAN_MOTION_DOT": 1.301e-05, "MEAN_MOTION_DDOT": 0}, "tle": {"line1": "1 39160U 13021B   25346.28004734  .00001301  00000+0  25171-3 0  9997", "line2": "2 39160  97.9371  41.5706 0001294  79.4414 280.6935 14.64922443672923"}}, "geometry": {"type": "Point", "coordinates": [132.64093692788745, -82.05747755883897]}}, {"type": "Feature", "properties": {"norad_id": 39227, "name": "ARIRANG-5 (KOMPSAT-5)", "group": "resource", "lat": 17.367484904550984, "lon": 168.84871139186035, "alt_km": 551.5421156678349, "timestamp": "2025-12-12T22:42:12.207016+00:00", "meta": {"OBJECT_NAME": "ARIRANG-5 (KOMPSAT-5)", "OBJECT_ID": "2013-042A", "EPOCH": "2025-12-12T08:15:35.540640", "MEAN_MOTION": 15.0450259, "ECCENTRICITY": 0.00036613, "INCLINATION": 97.6144, "RA_OF_ASC_NODE": 170.6537, "ARG_OF_PERICENTER": 56.8295, "MEAN_ANOMALY": 303.3282, "EPHEMERIS_TYPE": 0, "CLASSIFICATION_TYPE": "U", "NORAD_CAT_ID": 39227, "ELEMENT_SET_NO": 999, "REV_AT_EPOCH": 67576, "BSTAR": 0.00028218123, "MEAN_MOTION_DOT": 3.891e-05, "MEAN_MOTION_DDOT": 0}, "tle": {"line1": "1 39227U 13042A   25346.34416135  .00003891  00000+0  28218-3 0  9994", "line2": "2 39227  97.6144 170.6537 0003661  56.8295 303.3282 15.04502590675769"}}, "geometry": {"type": "Point", "coordinates": [168.84871139186035, 17.367484904550984]}}, {"type": "Feature", "properties": {"norad_id": 39418, "name": "SKYSAT-A", "group": "resource", "lat": 35.63967034241104, "lon": 31.793128561909604, "alt_km": 542.3556186518135, "timestamp": "2025-12-12T22:42:12.207027+00:00", "meta": {"OBJECT_NAME": "SKYSAT-A", "OBJECT_ID": "2013-066C", "EPOCH": "2025-12-12T01:53:26.618784", "MEAN_MOTION": 15.11597533, "ECCENTRICITY": 0.00206482, "INCLINATION": 97.4112, "RA_OF_ASC_NODE": 36.3072, "ARG_OF_PERICENTER": 238.8896, "MEAN_ANOMALY": 121.0309, "EPHEMERIS_TYPE": 0, "CLASSIFICATION_TYPE": "U", "NORAD_CAT_ID": 39418, "ELEMENT_SET_NO": 999, "REV_AT_EPOCH": 66020, "BSTAR": 0.00035227181, "MEAN_MOTION_DOT": 5.948e-05, "MEAN_MOTION_DDOT": 0}, "tle": {"line1": "1 39418U 13066C   25346.07878031  .00005948  00000+0  35227-3 0  9992", "line2": "2 39418  97.4112  36.3072 0020648 238.8896 121.0309 15.11597533660206"}}, "geometry": {"type": "Point", "coordinates": [31.793128561909604, 35.63967034241104]}}, {"type": "Feature", "properties": {"norad_id": 39419, "name": "DUBAISAT-2", "group": "resource", "lat": 4.242127233706817, "lon": 157.90274611346328, "alt_km": 549.7931551833599, "timestamp": "2025-12-12T22:42:12.207037+00:00", "meta": {"OBJECT_NAME": "DUBAISAT-2", "OBJECT_ID": "2013-066D", "EPOCH": "2025-12-12T06:00:19.170432", "MEAN_MOTION": 15.08355451, "ECCENTRICITY": 0.0010765, "INCLINATION": 97.4459, "RA_OF_ASC_NODE": 336.6725, "ARG_OF_PERICENTER": 323.0585, "MEAN_ANOMALY": 36.9902, "EPHEMERIS_TYPE": 0, "CLASSIFICATION_TYPE": "U", "NORAD_CAT_ID": 39419, "ELEMENT_SET_NO": 999, "REV_AT_EPOCH": 65819, "BSTAR": 0.00060145765, "MEAN_MOTION_DOT": 9.299e-05, "MEAN_MOTION_DDOT": 0}, "tle": {"line1": "1 39419U 13066D   25346.25022188  .00009299  00000+0  60146-3 0  9998", "line2": "2 39419  97.4459 336.6725 0010765 323.0585  36.9902 15.08355451658198"}}, "geometry": {"type": "Point", "coordinates": [157.90274611346328, 4.242127233706817]}}]}